GLOBALSTAR M057         
1 25943U 99058A   25177.33563480 -.00000049  00000+0  39883-3 0  9995
2 25943  52.0002 322.2420 0003040  50.1220 309.9897 12.24823093168055
GLOBALSTAR M059         
1 25944U 99058B   25177.32587595 -.00000080  00000+0  79487-4 0  9998
2 25944  51.9985 182.4500 0000700 309.7469  63.0265 11.99980025575146
GLOBALSTAR M056         
1 25945U 99058C   25178.21770498 -.00000120  00000+0 -37573-3 0  9999
2 25945  51.9932 181.7393 0001072 210.9690 231.5259 12.04781840163883
GLOBALSTAR M031         
1 25946U 99058D   25177.69054090  .00000030  00000+0  12273-2 0  9991
2 25946  51.9969  74.9402 0000793 175.3533 207.2534 12.16036965165700
GLOBALSTAR M039         
1 25961U 99062A   25177.58739429 -.00000104  00000+0 -33019-6 0  9996
2 25961  51.9837 240.0870 0002380  13.6924 346.4006 12.62328723181400
GLOBALSTAR M034         
1 25962U 99062B   25177.78934601 -.00000131  00000+0 -79102-3 0  9998
2 25962  51.9896 346.4272 0014754  61.5509  41.2776 11.79445958139529
GLOBALSTAR M029         
1 25963U 99062C   25177.93073527 -.00000044  00000+0  52220-3 0  9991
2 25963  51.9815  68.8409 0002645 121.7372 302.6605 11.99898140170348
GLOBALSTAR M061         
1 25964U 99062D   25178.21922286 -.00000078  00000+0  40957-4 0  9991
2 25964  51.9761 169.4776 0006213 341.4730  31.6746 11.76776467122656
